{"type": "FeatureCollection", "features": [ {"type": "Feature", "properties": {"norad_id": 37834, "name": "INTELSAT 18 (IS-18)", "group": "intelsat", "lat": 0.020035466463996322, "lon": 88.67509292400173, "alt_km": 35793.42628138041, "timestamp": "2025-12-25T11:37:44.089482+00:00", "meta": {"OBJECT_NAME": "INTELSAT 18 (IS-18)", "OBJECT_ID": "2011-056A", "EPOCH": "2025-12-25T01:24:38.642976", "MEAN_MOTION": 1.00271682, "ECCENTRICITY": 0.0001854, "INCLINATION": 0.0212, "RA_OF_ASC_NODE": 290.3629, "ARG_OF_PERICENTER": 358.938, "MEAN_ANOMALY": 5.6811, "EPHEMERIS_TYPE": 0, "CLASSIFICATION_TYPE": "U", "NORAD_CAT_ID": 37834, "ELEMENT_SET_NO": 999, "REV_AT_EPOCH": 5206, "BSTAR": 0, "MEAN_MOTION_DOT": 7.4e-07, "MEAN_MOTION_DDOT": 0}, "tle": {"line1": "1 37834U 11056A   25359.05878059  .00000074  00000+0  00000+0 0  9993", "line2": "2 37834   0.0212 290.3629 0001854 358.9380   5.6811  1.00271682 52068"}}, "geometry": {"type": "Point", "coordinates": [88.67509292400173, 0.020035466463996322]}}, {"type": "Feature", "properties": {"norad_id": 38098, "name": "INTELSAT 22 (IS-22)", "group": "intelsat", "lat": -0.03919205905403383, "lon": -19.2294708971724, "alt_km": 35780.528215551625, "timestamp": "2025-12-25T11:37:44.089495+00:00", "meta": {"OBJECT_NAME": "INTELSAT 22 (IS-22)", "OBJECT_ID": "2012-011A", "EPOCH": "2025-12-25T01:25:30.246240", "MEAN_MOTION": 1.00270524, "ECCENTRICITY": 0.0001937, "INCLINATION": 0.0297, "RA_OF_ASC_NODE": 47.6091, "ARG_OF_PERICENTER": 249.4587, "MEAN_ANOMALY": 250.2191, "EPHEMERIS_TYPE": 0, "CLASSIFICATION_TYPE": "U", "NORAD_CAT_ID": 38098, "ELEMENT_SET_NO": 999, "REV_AT_EPOCH": 544, "BSTAR": 0, "MEAN_MOTION_DOT": 0, "MEAN_MOTION_DDOT": 0}, "tle": {"line1": "1 38098U 12011A   25359.05937785  .00000000  00000+0  00000+0 0  9999", "line2": "2 38098   0.0297  47.6091 0001937 249.4587 250.2191  1.00270524  5448"}}, "geometry": {"type": "Point", "coordinates": [-19.2294708971724, -0.03919205905403383]}}, {"type": "Feature", "properties": {"norad_id": 38356, "name": "INTELSAT 19 (IS-19)", "group": "intelsat", "lat": 0.02646585460278851, "lon": 74.68741822636369, "alt_km": 35797.957370372096, "timestamp": "2025-12-25T11:37:44.089507+00:00", "meta": {"OBJECT_NAME": "INTELSAT 19 (IS-19)", "OBJECT_ID": "2012-030A", "EPOCH": "2025-12-25T04:09:50.825088", "MEAN_MOTION": 1.00272047, "ECCENTRICITY": 0.000294, "INCLINATION": 0.0117, "RA_OF_ASC_NODE": 329.2864, "ARG_OF_PERICENTER": 301.5405, "MEAN_ANOMALY": 51.579, "EPHEMERIS_TYPE": 0, "CLASSIFICATION_TYPE": "U", "NORAD_CAT_ID": 38356, "ELEMENT_SET_NO": 999, "REV_AT_EPOCH": 4870, "BSTAR": 0, "MEAN_MOTION_DOT": -3.5e-07, "MEAN_MOTION_DDOT": 0}, "tle": {"line1": "1 38356U 12030A   25359.17350492 -.00000035  00000+0  00000+0 0  9993", "line2": "2 38356   0.0117 329.2864 0002940 301.5405  51.5790  1.00272047 48702"}}, "geometry": {"type": "Point", "coordinates": [74.68741822636369, 0.02646585460278851]}}, {"type": "Feature", "properties": {"norad_id": 38740, "name": "INTELSAT 20 (IS-20)", "group": "intelsat", "lat": -0.02323726646316161, "lon": -22.811798071913202, "alt_km": 35794.05008578003, "timestamp": "2025-12-25T11:37:44.089519+00:00", "meta": {"OBJECT_NAME": "INTELSAT 20 (IS-20)", "OBJECT_ID": "2012-043A", "EPOCH": "2025-12-24T23:41:40.191072", "MEAN_MOTION": 1.00274574, "ECCENTRICITY": 0.0002407, "INCLINATION": 0.0114, "RA_OF_ASC_NODE": 58.8187, "ARG_OF_PERICENTER": 128.2176, "MEAN_ANOMALY": 330.6334, "EPHEMERIS_TYPE": 0, "CLASSIFICATION_TYPE": "U", "NORAD_CAT_ID": 38740, "ELEMENT_SET_NO": 999, "REV_AT_EPOCH": 4900, "BSTAR": 0, "MEAN_MOTION_DOT": -4e-08, "MEAN_MOTION_DDOT": 0}, "tle": {"line1": "1 38740U 12043A   25358.98727073 -.00000004  00000+0  00000+0 0  9991", "line2": "2 38740   0.0114  58.8187 0002407 128.2176 330.6334  1.00274574 49002"}}, "geometry": {"type": "Point", "coordinates": [-22.811798071913202, -0.02323726646316161]}}, {"type": "Feature", "properties": {"norad_id": 38749, "name": "INTELSAT 21 (IS-21)", "group": "intelsat", "lat": -0.015575602192580048, "lon": -149.33042803006185, "alt_km": 35781.71120897198, "timestamp": "2025-12-25T11:37:44.089530+00:00", "meta": {"OBJECT_NAME": "INTELSAT 21 (IS-21)", "OBJECT_ID": "2012-045A", "EPOCH": "2025-12-24T21:23:00.970080", "MEAN_MOTION": 1.00272669, "ECCENTRICITY": 0.0001677, "INCLINATION": 0.0114, "RA_OF_ASC_NODE": 311.8484, "ARG_OF_PERICENTER": 312.5149, "MEAN_ANOMALY": 92.0621, "EPHEMERIS_TYPE": 0, "CLASSIFICATION_TYPE": "U", "NORAD_CAT_ID": 38749, "ELEMENT_SET_NO": 999, "REV_AT_EPOCH": 4877, "BSTAR": 0, "MEAN_MOTION_DOT": -2.64e-06, "MEAN_MOTION_DDOT": 0}, "tle": {"line1": "1 38749U 12045A   25358.89098345 -.00000264  00000+0  00000+0 0  9993", "line2": "2 38749   0.0114 311.8484 0001677 312.5149  92.0621  1.00272669 48773"}}, "geometry": {"type": "Point", "coordinates": [-149.33042803006185, -0.015575602192580048]}}, {"type": "Feature", "properties": {"norad_id": 38867, "name": "INTELSAT 23 (IS-23)", "group": "intelsat", "lat": 0.003613383593130656, "lon": -144.3304753159241, "alt_km": 35785.35770125837, "timestamp": "2025-12-25T11:37:44.089542+00:00", "meta": {"OBJECT_NAME": "INTELSAT 23 (IS-23)", "OBJECT_ID": "2012-057A", "EPOCH": "2025-12-25T04:25:47.526240", "MEAN_MOTION": 1.00274029, "ECCENTRICITY": 5.24e-05, "INCLINATION": 0.0134, "RA_OF_ASC_NODE": 70.2161, "ARG_OF_PERICENTER": 232.2564, "MEAN_ANOMALY": 164.926, "EPHEMERIS_TYPE": 0, "CLASSIFICATION_TYPE": "U", "NORAD_CAT_ID": 38867, "ELEMENT_SET_NO": 999, "REV_AT_EPOCH": 4821, "BSTAR": 0, "MEAN_MOTION_DOT": -2.63e-06, "MEAN_MOTION_DDOT": 0}, "tle": {"line1": "1 38867U 12057A   25359.18457785 -.00000263  00000+0  00000+0 0  9996", "line2": "2 38867   0.0134  70.2161 0000524 232.2564 164.9260  1.00274029 48212"}}, "geometry": {"type": "Point", "coordinates": [-144.3304753159241, 0.003613383593130656]}}, {"type": "Feature", "properties": {"norad_id": 39360, "name": "FM-6", "group": "intelsat", "lat": 0.02748846322248533, "lon": 152.4814635153107, "alt_km": 35775.81257160308, "timestamp": "2025-12-25T11:37:44.089554+00:00", "meta": {"OBJECT_NAME": "FM-6", "OBJECT_ID": "2013-058A", "EPOCH": "2025-12-25T02:39:08.527104", "MEAN_MOTION": 1.00272868, "ECCENTRICITY": 0.0002682, "INCLINATION": 0.0181, "RA_OF_ASC_NODE": 75.0294, "ARG_OF_PERICENTER": 105.4068, "MEAN_ANOMALY": 197.0479, "EPHEMERIS_TYPE": 0, "CLASSIFICATION_TYPE": "U", "NORAD_CAT_ID": 39360, "ELEMENT_SET_NO": 999, "REV_AT_EPOCH": 4432, "BSTAR": 0, "MEAN_MOTION_DOT": 4e-08, "MEAN_MOTION_DDOT": 0}, "tle": {"line1": "1 39360U 13058A   25359.11051536  .00000004  00000+0  00000+0 0  9996", "line2": "2 39360   0.0181  75.0294 0002682 105.4068 197.0479  1.00272868 44326"}}, "geometry": {"type": "Point", "coordinates": [152.4814635153107, 0.02748846322248533]}}, {"type": "Feature", "properties": {"norad_id": 40271, "name": "INTELSAT 30 (IS-30)", "group": "intelsat", "lat": 0.01767684179008437, "lon": 173.62381437727814, "alt_km": 35785.944126470764, "timestamp": "2025-12-25T11:37:44.089565+00:00", "meta": {"OBJECT_NAME": "INTELSAT 30 (IS-30)", "OBJECT_ID": "2014-062A", "EPOCH": "2025-12-24T22:55:07.150368", "MEAN_MOTION": 1.00269678, "ECCENTRICITY": 0.0001511, "INCLINATION": 0.0145, "RA_OF_ASC_NODE": 31.8875, "ARG_OF_PERICENTER": 58.3804, "MEAN_ANOMALY": 252.1734, "EPHEMERIS_TYPE": 0, "CLASSIFICATION_TYPE": "U", "NORAD_CAT_ID": 40271, "ELEMENT_SET_NO": 999, "REV_AT_EPOCH": 504, "BSTAR": 0, "MEAN_MOTION_DOT": -1.29e-06, "MEAN_MOTION_DDOT": 0}, "tle": {"line1": "1 40271U 14062A   25358.95494387 -.00000129  00000+0  00000+0 0  9990", "line2": "2 40271   0.0145  31.8875 0001511  58.3804 252.1734  1.00269678  5046"}}, "geometry": {"type": "Point", "coordinates": [173.62381437727814, 0.01767684179008437]}}, {"type": "Feature", "properties": {"norad_id": 40333, "name": "DIRECTV 14", "group": "intelsat", "lat": 0.0014683258672585854, "lon": 169.48386832067834, "alt_km": 35783.18463940823, "timestamp": "2025-12-25T11:37:44.089577+00:00", "meta": {"OBJECT_NAME": "DIRECTV 14", "OBJECT_ID": "2014-078B", "EPOCH": "2025-12-24T12:37:43.773312", "MEAN_MOTION": 1.00279829, "ECCENTRICITY": 3.885e-05, "INCLINATION": 0.0184, "RA_OF_ASC_NODE": 340.4706, "ARG_OF_PERICENTER": 254.7884, "MEAN_ANOMALY": 308.2619, "EPHEMERIS_TYPE": 0, "CLASSIFICATION_TYPE": "U", "NORAD_CAT_ID": 40333, "ELEMENT_SET_NO": 999, "REV_AT_EPOCH": 4029, "BSTAR": 0, "MEAN_MOTION_DOT": -1.06e-06, "MEAN_MOTION_DDOT": 0}, "tle": {"line1": "1 40333U 14078B   25358.52620108 -.00000106  00000+0  00000+0 0  9996", "line2": "2 40333   0.0184 340.4706 0000388 254.7884 308.2619  1.00279829 40291"}}, "geometry": {"type": "Point", "coordinates": [169.48386832067834, 0.0014683258672585854]}}, {"type": "Feature", "properties": {"norad_id": 40663, "name": "DIRECTV 15", "group": "intelsat", "lat": 0.023500519474659854, "lon": 165.76712839949707, "alt_km": 35786.487365393565, "timestamp": "2025-12-25T11:37:44.089589+00:00", "meta": {"OBJECT_NAME": "DIRECTV 15", "OBJECT_ID": "2015-026A", "EPOCH": "2025-12-25T03:26:51.817056", "MEAN_MOTION": 1.00266089, "ECCENTRICITY": 2.88e-05, "INCLINATION": 0.0214, "RA_OF_ASC_NODE": 23.9165, "ARG_OF_PERICENTER": 151.045, "MEAN_ANOMALY": 227.766, "EPHEMERIS_TYPE": 0, "CLASSIFICATION_TYPE": "U", "NORAD_CAT_ID": 40663, "ELEMENT_SET_NO": 999, "REV_AT_EPOCH": 3871, "BSTAR": 0, "MEAN_MOTION_DOT": 0, "MEAN_MOTION_DDOT": 0}, "tle": {"line1": "1 40663U 15026A   25359.14365529  .00000000  00000+0  00000+0 0  9990", "line2": "2 40663   0.0214  23.9165 0000288 151.0450 227.7660  1.00266089 38719"}}, "geometry": {"type": "Point", "coordinates": [165.76712839949707, 0.023500519474659854]}}]}